NORAD_CAT_ID,OBJECT_NAME,OBJECT_TYPE,EPOCH,MEAN_MOTION,ECCENTRICITY,INCLINATION,RA_OF_ASC_NODE,ARG_OF_PERICENTER,MEAN_ANOMALY,BSTAR,MEAN_MOTION_DOT,MEAN_MOTION_DDOT,TLE_LINE0,TLE_LINE1,TLE_LINE2,SEMIMAJOR_AXIS,PERIOD,APOGEE,PERIGEE,DECAYED
54172.0,STARLINK-5117,PAYLOAD,2024-04-15 04:38:42,15.088547,0.0001076,53.2158,237.316,100.8216,259.2897,0.0014597,0.00023029,0.0,0 STARLINK-5117,1 54172U 22141R   24106.19355256  .00023029  00000-0  14597-2 0  9992,2 54172  53.2158 237.3160 0001076 100.8216 259.2897 15.08854700 81165,6917.835,95.437,540.445,538.956,0.0
54172.0,STARLINK-5117,PAYLOAD,2024-04-15 12:35:38,15.08839332,0.000118,53.2157,235.8293,96.8867,263.2259,0.0007141,0.00011095,0.0,0 STARLINK-5117,1 54172U 22141R   24106.52475538  .00011095  00000-0  71410-3 0  9993,2 54172  53.2157 235.8293 0001180  96.8867 263.2259 15.08839332 81213,6917.882,95.438,540.564,538.931,0.0
54172.0,STARLINK-5117,PAYLOAD,2024-04-15 14:11:02,15.08836398,0.0001174,53.2158,235.5319,97.4448,262.6677,0.00070527,0.00010953,0.0,0 STARLINK-5117,1 54172U 22141R   24106.59099627  .00010953  00000-0  70527-3 0  9991,2 54172  53.2158 235.5319 0001174  97.4448 262.6677 15.08836398 81222,6917.891,95.438,540.569,538.944,0.0
54172.0,STARLINK-5117,PAYLOAD,2024-04-15 20:32:34,15.08855579,0.0001218,53.2153,234.3428,96.2417,263.8714,0.0025153,0.00039987,0.0,0 STARLINK-5117,1 54172U 22141R   24106.85595684  .00039987  00000-0  25153-2 0  9996,2 54172  53.2153 234.3428 0001218  96.2417 263.8714 15.08855579 81268,6917.833,95.437,540.54,538.855,0.0
54172.0,STARLINK-5117,PAYLOAD,2024-04-16 12:26:25,15.08864404,0.0001089,53.2151,231.369,86.0565,274.0552,0.0021166,0.00033581,0.0,0 STARLINK-5117,1 54172U 22141R   24107.51835531  .00033581  00000-0  21166-2 0  9992,2 54172  53.2151 231.3690 0001089  86.0565 274.0552 15.08864404 81363,6917.806,95.436,540.424,538.917,0.0
54172.0,STARLINK-5117,PAYLOAD,2024-04-16 14:01:48,15.08870669,0.0001134,53.2151,231.0717,85.2846,274.8276,0.0025916,0.00041234,0.0,0 STARLINK-5117,1 54172U 22141R   24107.58459469  .00041234  00000-0  25916-2 0  9992,2 54172  53.2151 231.0717 0001134  85.2846 274.8276 15.08870669 81376,6917.787,95.436,540.436,538.867,0.0
54172.0,STARLINK-5117,PAYLOAD,2024-04-16 15:37:12,15.08874086,0.0001157,53.215,230.7739,82.9184,277.1939,0.002861,0.00045582,0.0,0 STARLINK-5117,1 54172U 22141R   24107.65083407  .00045582  00000-0  28610-2 0  9999,2 54172  53.2150 230.7739 0001157  82.9184 277.1939 15.08874086 81389,6917.776,95.435,540.442,538.841,0.0
54172.0,STARLINK-5117,PAYLOAD,2024-04-17 12:17:13,15.08873129,0.0001281,53.2148,226.909,98.8662,261.2475,0.0027868,0.00044384,0.0,0 STARLINK-5117,1 54172U 22141R   24108.51195787  .00044384  00000-0  27868-2 0  9993,2 54172  53.2148 226.9090 0001281  98.8662 261.2475 15.08873129 81519,6917.779,95.435,540.53,538.758,0.0
54172.0,STARLINK-5117,PAYLOAD,2024-04-17 13:52:35,15.08871727,0.0001448,53.2147,226.6117,151.9199,208.1871,0.002396,0.00038084,0.0,0 STARLINK-5117,1 54172U 22141R   24108.57819386  .00038084  00000-0  23960-2 0  9996,2 54172  53.2147 226.6117 0001448 151.9199 208.1871 15.08871727 81529,6917.783,95.436,540.65,538.647,0.0
54172.0,STARLINK-5117,PAYLOAD,2024-04-17 15:27:59,15.08837449,0.0001407,53.2147,226.3143,113.6197,246.4943,0.0021691,0.000344,0.0,0 STARLINK-5117,1 54172U 22141R   24108.64443720  .00034400  00000-0  21691-2 0  9996,2 54172  53.2147 226.3143 0001407 113.6197 246.4943 15.08837449 81532,6917.888,95.438,540.727,538.78,0.0
54172.0,STARLINK-5117,PAYLOAD,2024-04-18 12:08:00,15.08837422,0.0001586,53.2167,222.4465,114.7737,245.342,0.0010768,0.0001689,0.0,0 STARLINK-5117,1 54172U 22141R   24109.50556562  .00016890  00000-0  10768-2 0  9997,2 54172  53.2167 222.4465 0001586 114.7737 245.3420 15.08837422 81661,6917.888,95.438,540.85,538.656,0.0
54172.0,STARLINK-5117,PAYLOAD,2024-04-18 13:43:24,15.08832209,0.000174,53.2156,222.1511,84.5675,275.5516,0.00053709,8.268e-05,0.0,0 STARLINK-5117,1 54172U 22141R   24109.57180798  .00008268  00000-0  53709-3 0  9991,2 54172  53.2156 222.1511 0001740  84.5675 275.5516 15.08832209 81675,6917.904,95.438,540.973,538.565,0.0
54172.0,STARLINK-5117,PAYLOAD,2024-04-19 13:34:10,15.08851491,0.0001692,53.216,217.6878,89.4489,270.6697,0.00056302,8.687e-05,0.0,0 STARLINK-5117,1 54172U 22141R   24110.56540418  .00008687  00000-0  56302-3 0  9998,2 54172  53.2160 217.6878 0001692  89.4489 270.6697 15.08851491 81825,6917.845,95.437,540.881,538.54,0.0
54172.0,STARLINK-5117,PAYLOAD,2024-04-20 13:24:57,15.08847742,0.0001521,53.2152,213.2256,134.6927,225.419,0.00013936,1.931e-05,0.0,0 STARLINK-5117,1 54172U 22141R   24111.55899726  .00001931  00000-0  13936-3 0  9998,2 54172  53.2152 213.2256 0001521 134.6927 225.4190 15.08847742 81975,6917.857,95.437,540.774,538.67,0.0
54172.0,STARLINK-5117,PAYLOAD,2024-04-21 13:15:44,15.0884365,0.0001433,53.2163,208.761,125.6218,234.4908,-2.887e-05,-7.47e-06,0.0,0 STARLINK-5117,1 54172U 22141R   24112.55259794 -.00000747  00000-0 -28870-4 0  9994,2 54172  53.2163 208.7610 0001433 125.6218 234.4908 15.08843650 82124,6917.869,95.437,540.726,538.743,0.0
54172.0,STARLINK-5117,PAYLOAD,2024-04-21 16:26:30,15.08841933,0.0001533,53.2165,208.1694,127.8491,232.264,2.8287e-05,1.62e-06,0.0,0 STARLINK-5117,1 54172U 22141R   24112.68507864  .00000162  00000-0  28287-4 0  9993,2 54172  53.2165 208.1694 0001533 127.8491 232.2640 15.08841933 82143,6917.874,95.437,540.8,538.679,0.0
54172.0,STARLINK-5117,PAYLOAD,2024-04-22 09:55:45,15.08839271,0.0001418,53.2175,204.899,127.4343,232.6779,0.00011792,1.589e-05,0.0,0 STARLINK-5117,1 54172U 22141R   24113.41371762  .00001589  00000-0  11792-3 0  9997,2 54172  53.2175 204.8990 0001418 127.4343 232.6779 15.08839271 82251,6917.883,95.438,540.729,538.767,0.0
54172.0,STARLINK-5117,PAYLOAD,2024-04-22 13:06:31,15.08839676,0.0001194,53.2174,204.3058,116.9827,243.1287,0.00011668,1.57e-05,0.0,0 STARLINK-5117,1 54172U 22141R   24113.54619761  .00001570  00000-0  11668-3 0  9997,2 54172  53.2174 204.3058 0001194 116.9827 243.1287 15.08839676 82273,6917.881,95.438,540.572,538.92,0.0
54172.0,STARLINK-5117,PAYLOAD,2024-04-23 12:57:19,15.08829851,0.000135,53.2178,199.8443,83.9025,276.2121,1.4159e-05,-6.3e-07,0.0,0 STARLINK-5117,1 54172U 22141R   24114.53981344 -.00000063  00000-0  14159-4 0  9992,2 54172  53.2178 199.8443 0001350  83.9025 276.2121 15.08829851 82425,6917.911,95.438,540.71,538.842,0.0
54172.0,STARLINK-5117,PAYLOAD,2024-04-24 12:48:06,15.08834409,0.0001319,53.2172,195.3867,87.674,272.4403,0.00010153,1.328e-05,0.0,0 STARLINK-5117,1 54172U 22141R   24115.53341394  .00001328  00000-0  10153-3 0  9991,2 54172  53.2172 195.3867 0001319  87.6740 272.4403 15.08834409 82572,6917.897,95.438,540.675,538.85,0.0
54172.0,STARLINK-5117,PAYLOAD,2024-04-25 04:41:58,15.08817828,0.0001794,53.2178,192.4167,67.0386,293.0795,0.00039275,5.964e-05,0.0,0 STARLINK-5117,1 54172U 22141R   24116.19582028  .00005964  00000-0  39275-3 0  9991,2 54172  53.2178 192.4167 0001794  67.0386 293.0795 15.08817828 82674,6917.948,95.439,541.054,538.572,0.0
54172.0,STARLINK-5117,PAYLOAD,2024-04-25 12:38:54,15.08832584,0.0001826,53.217,190.9292,67.2927,292.8258,0.0003038,4.549e-05,0.0,0 STARLINK-5117,1 54172U 22141R   24116.52702245  .00004549  00000-0  30380-3 0  9999,2 54172  53.2170 190.9292 0001826  67.2927 292.8258 15.08832584 82720,6917.903,95.438,541.031,538.505,0.0
54172.0,STARLINK-5117,PAYLOAD,2024-04-26 10:54:17,15.08846266,0.0001472,53.2154,186.765,93.9969,266.1191,0.000166,2.355e-05,0.0,0 STARLINK-5117,1 54172U 22141R   24117.45437428  .00002355  00000-0  16600-3 0  9992,2 54172  53.2154 186.7650 0001472  93.9969 266.1191 15.08846266 82869,6917.861,95.437,540.745,538.708,0.0
54172.0,STARLINK-5117,PAYLOAD,2024-04-26 14:05:03,15.08853116,0.0001496,53.2159,186.1691,96.2067,263.9096,0.00016069,2.271e-05,0.0,0 STARLINK-5117,1 54172U 22141R   24117.58685033  .00002271  00000-0  16069-3 0  9999,2 54172  53.2159 186.1691 0001496  96.2067 263.9096 15.08853116 82887,6917.84,95.437,540.74,538.67,0.0
54172.0,STARLINK-5117,PAYLOAD,2024-04-27 10:45:05,15.08838027,0.0001569,53.2158,182.302,108.8926,251.2236,-1.7458e-05,-5.66e-06,0.0,0 STARLINK-5117,1 54172U 22141R   24118.44797609 -.00000566  00000-0 -17458-4 0  9999,2 54172  53.2158 182.3020 0001569 108.8926 251.2236 15.08838027 83011,6917.886,95.438,540.837,538.666,0.0
54172.0,STARLINK-5117,PAYLOAD,2024-04-28 09:00:29,15.08839401,0.0001619,53.2171,178.1387,111.0029,249.1136,-3.5941e-05,-8.6e-06,0.0,0 STARLINK-5117,1 54172U 22141R   24119.37533586 -.00000860  00000-0 -35941-4 0  9998,2 54172  53.2171 178.1387 0001619 111.0029 249.1136 15.08839401 83158,6917.882,95.438,540.867,538.627,0.0
54172.0,STARLINK-5117,PAYLOAD,2024-04-29 04:05:07,15.08822579,0.000142,53.2158,174.5709,113.6071,246.507,0.00041494,6.319e-05,0.0,0 STARLINK-5117,1 54172U 22141R   24120.17022648  .00006319  00000-0  41494-3 0  9992,2 54172  53.2158 174.5709 0001420 113.6071 246.5070 15.08822579 83275,6917.934,95.439,540.781,538.816,0.0
54172.0,STARLINK-5117,PAYLOAD,2024-04-29 10:26:40,15.08824628,0.0001079,53.2148,173.386,101.3619,258.7494,0.00047265,7.239e-05,0.0,0 STARLINK-5117,1 54172U 22141R   24120.43518840  .00007239  00000-0  47265-3 0  9999,2 54172  53.2148 173.3860 0001079 101.3619 258.7494 15.08824628 83318,6917.927,95.439,540.539,539.046,0.0
54172.0,STARLINK-5117,PAYLOAD,2024-04-29 19:58:58,15.0884136,0.0001243,53.2163,171.602,100.5883,259.5249,0.00014742,2.059e-05,0.0,0 STARLINK-5117,1 54172U 22141R   24120.83261657  .00002059  00000-0  14742-3 0  9993,2 54172  53.2163 171.6020 0001243 100.5883 259.5249 15.08841360 83376,6917.876,95.437,540.601,538.881,0.0
54172.0,STARLINK-5117,PAYLOAD,2024-04-30 10:17:26,15.08840455,0.0001389,53.2175,168.9252,97.2579,262.8571,0.00022027,3.219e-05,0.0,0 STARLINK-5117,1 54172U 22141R   24121.42877845  .00003219  00000-0  22027-3 0  9995,2 54172  53.2175 168.9252 0001389  97.2579 262.8571 15.08840455 83469,6917.879,95.438,540.705,538.783,0.0
